G21 G90 G17 G94 G54
G91.1
S12000 M03
G00 Z3.50
G00 X0.000 Y0.000
G01 Z0.00 F100.00
G01 X0.000 Y15.000 F400.00
G01 X45.000 Y15.000
G01 X45.000 Y0.000
G01 X0.000 Y0.000
G00 Z3.50
G00 X10.150 Y11.278
G01 Z1.30 F100.00
G01 X11.150 Y11.278 F400.00
G01 X11.650 Y11.427
G01 X12.016 Y11.833
G01 X12.150 Y12.389
G01 X12.016 Y12.944
G01 X11.650 Y13.351
G01 X11.150 Y13.500
G01 X10.150 Y13.500
G01 X10.150 Y9.500
G00 Z3.50
G00 X15.350 Y10.611
G01 Z1.30 F100.00
G01 X15.350 Y12.389 F400.00
G01 X15.216 Y12.944
G01 X14.850 Y13.351
G01 X14.350 Y13.500
G01 X13.850 Y13.351
G01 X13.484 Y12.944
G03 X13.484 Y10.056 I4.771 J-1.444
G01 X13.850 Y9.649
G01 X14.350 Y9.500
G01 X14.850 Y9.649
G01 X15.216 Y10.056
G01 X15.350 Y10.611
G00 Z3.50
G00 X18.950 Y9.500
G01 Z1.30 F100.00
G01 X18.950 Y13.500 F400.00
G01 X17.750 Y11.278
G01 X16.550 Y13.500
G01 X16.550 Y9.500
G00 Z3.50
G00 X20.150 Y11.278
G01 Z1.30 F100.00
G01 X21.150 Y11.278 F400.00
G01 X21.650 Y11.427
G01 X22.016 Y11.833
G01 X22.150 Y12.389
G01 X22.016 Y12.944
G01 X21.650 Y13.351
G01 X21.150 Y13.500
G01 X20.150 Y13.500
G01 X20.150 Y9.500
G00 Z3.50
G00 X25.417 Y10.611
G01 Z1.30 F100.00
G01 X23.683 Y10.611 F400.00
G00 Z3.50
G00 X25.750 Y9.500
G01 Z1.30 F100.00
G01 X24.550 Y13.500 F400.00
G01 X23.350 Y9.500
G00 Z3.50
G00 X30.850 Y11.278
G01 Z1.30 F100.00
G01 X31.850 Y11.278 F400.00
G01 X32.350 Y11.427
G01 X32.716 Y11.833
G01 X32.850 Y12.389
G01 X32.716 Y12.944
G01 X32.350 Y13.351
G01 X31.850 Y13.500
G01 X30.850 Y13.500
G01 X30.850 Y9.500
G00 Z3.50
G00 X34.850 Y9.500
G01 Z1.30 F100.00
G01 X34.850 Y13.500 F400.00
G01 X34.050 Y12.611
G00 Z3.50
G00 X45.000 Y0.000
G01 Z0.00 F100.00
G01 X45.000 Y15.000 F400.00
G01 X90.000 Y15.000
G01 X90.000 Y0.000
G01 X45.000 Y0.000
G00 Z3.50
G00 X54.750 Y11.278
G01 Z1.30 F100.00
G01 X55.750 Y11.278 F400.00
G01 X56.250 Y11.427
G01 X56.616 Y11.833
G01 X56.750 Y12.389
G01 X56.616 Y12.944
G01 X56.250 Y13.351
G01 X55.750 Y13.500
G01 X54.750 Y13.500
G01 X54.750 Y9.500
G00 Z3.50
G00 X59.950 Y10.611
G01 Z1.30 F100.00
G01 X59.950 Y12.389 F400.00
G01 X59.816 Y12.944
G01 X59.450 Y13.351
G01 X58.950 Y13.500
G01 X58.450 Y13.351
G01 X58.084 Y12.944
G03 X58.084 Y10.056 I4.771 J-1.444
G01 X58.450 Y9.649
G01 X58.950 Y9.500
G01 X59.450 Y9.649
G01 X59.816 Y10.056
G01 X59.950 Y10.611
G00 Z3.50
G00 X63.550 Y9.500
G01 Z1.30 F100.00
G01 X63.550 Y13.500 F400.00
G01 X62.350 Y11.278
G01 X61.150 Y13.500
G01 X61.150 Y9.500
G00 Z3.50
G00 X64.750 Y11.278
G01 Z1.30 F100.00
G01 X65.750 Y11.278 F400.00
G01 X66.250 Y11.427
G01 X66.616 Y11.833
G01 X66.750 Y12.389
G01 X66.616 Y12.944
G01 X66.250 Y13.351
G01 X65.750 Y13.500
G01 X64.750 Y13.500
G01 X64.750 Y9.500
G00 Z3.50
G00 X70.017 Y10.611
G01 Z1.30 F100.00
G01 X68.283 Y10.611 F400.00
G00 Z3.50
G00 X70.350 Y9.500
G01 Z1.30 F100.00
G01 X69.150 Y13.500 F400.00
G01 X67.950 Y9.500
G00 Z3.50
G00 X75.450 Y11.278
G01 Z1.30 F100.00
G01 X76.450 Y11.278 F400.00
G01 X76.950 Y11.427
G01 X77.316 Y11.833
G01 X77.450 Y12.389
G01 X77.316 Y12.944
G01 X76.950 Y13.351
G01 X76.450 Y13.500
G01 X75.450 Y13.500
G01 X75.450 Y9.500
G00 Z3.50
G00 X80.250 Y9.500
G01 Z1.30 F100.00
G01 X78.650 Y9.500 F400.00
G01 X80.143 Y12.167
G01 X80.250 Y12.611
G01 X80.143 Y13.056
G01 X79.850 Y13.381
G01 X79.450 Y13.500
G01 X79.050 Y13.381
G01 X78.757 Y13.056
G01 X78.650 Y12.833
G00 Z3.50
G00 X90.000 Y0.000
G01 Z0.00 F100.00
G01 X90.000 Y15.000 F400.00
G01 X135.000 Y15.000
G01 X135.000 Y0.000
G01 X90.000 Y0.000
G00 Z3.50
G00 X104.900 Y11.278
G01 Z1.30 F100.00
G01 X105.900 Y11.278 F400.00
G01 X106.400 Y11.427
G01 X106.766 Y11.833
G01 X106.900 Y12.389
G01 X106.766 Y12.944
G01 X106.400 Y13.351
G01 X105.900 Y13.500
G01 X104.900 Y13.500
G01 X104.900 Y9.500
G00 Z3.50
G00 X108.100 Y11.278
G01 Z1.30 F100.00
G01 X109.100 Y11.278 F400.00
G01 X109.600 Y11.427
G01 X109.966 Y11.833
G01 X110.100 Y12.389
G01 X109.966 Y12.944
G01 X109.600 Y13.351
G01 X109.100 Y13.500
G01 X108.100 Y13.500
G01 X108.100 Y9.500
G00 Z3.50
G00 X109.291 Y11.298
G01 Z1.30 F100.00
G01 X110.100 Y9.500 F400.00
G00 Z3.50
G00 X113.367 Y10.611
G01 Z1.30 F100.00
G01 X111.633 Y10.611 F400.00
G00 Z3.50
G00 X113.700 Y9.500
G01 Z1.30 F100.00
G01 X112.500 Y13.500 F400.00
G01 X111.300 Y9.500
G00 Z3.50
G00 X116.500 Y13.500
G01 Z1.30 F100.00
G01 X115.700 Y13.500 F400.00
G01 X115.394 Y13.432
G01 X115.134 Y13.240
G01 X114.961 Y12.951
G03 X114.961 Y10.049 I7.126 J-1.451
G01 X115.134 Y9.760
G01 X115.394 Y9.568
G01 X115.700 Y9.500
G01 X116.500 Y9.500
G00 Z3.50
G00 X119.767 Y10.611
G01 Z1.30 F100.00
G01 X118.033 Y10.611 F400.00
G00 Z3.50
G00 X120.100 Y9.500
G01 Z1.30 F100.00
G01 X118.900 Y13.500 F400.00
G01 X117.700 Y9.500
G00 Z3.50
G00 X135.000 Y0.000
G01 Z0.00 F100.00
G01 X135.000 Y15.000 F400.00
G01 X180.000 Y15.000
G01 X180.000 Y0.000
G01 X135.000 Y0.000
G00 Z3.50
G00 X149.900 Y11.278
G01 Z1.30 F100.00
G01 X150.900 Y11.278 F400.00
G01 X151.400 Y11.427
G01 X151.766 Y11.833
G01 X151.900 Y12.389
G01 X151.766 Y12.944
G01 X151.400 Y13.351
G01 X150.900 Y13.500
G01 X149.900 Y13.500
G01 X149.900 Y9.500
G00 Z3.50
G00 X153.100 Y11.278
G01 Z1.30 F100.00
G01 X154.100 Y11.278 F400.00
G01 X154.600 Y11.427
G01 X154.966 Y11.833
G01 X155.100 Y12.389
G01 X154.966 Y12.944
G01 X154.600 Y13.351
G01 X154.100 Y13.500
G01 X153.100 Y13.500
G01 X153.100 Y9.500
G00 Z3.50
G00 X154.291 Y11.298
G01 Z1.30 F100.00
G01 X155.100 Y9.500 F400.00
G00 Z3.50
G00 X158.367 Y10.611
G01 Z1.30 F100.00
G01 X156.633 Y10.611 F400.00
G00 Z3.50
G00 X158.700 Y9.500
G01 Z1.30 F100.00
G01 X157.500 Y13.500 F400.00
G01 X156.300 Y9.500
G00 Z3.50
G00 X161.500 Y13.500
G01 Z1.30 F100.00
G01 X160.700 Y13.500 F400.00
G01 X160.394 Y13.432
G01 X160.134 Y13.240
G01 X159.961 Y12.951
G03 X159.961 Y10.049 I7.126 J-1.451
G01 X160.134 Y9.760
G01 X160.394 Y9.568
G01 X160.700 Y9.500
G01 X161.500 Y9.500
G00 Z3.50
G00 X164.767 Y10.611
G01 Z1.30 F100.00
G01 X163.033 Y10.611 F400.00
G00 Z3.50
G00 X165.100 Y9.500
G01 Z1.30 F100.00
G01 X163.900 Y13.500 F400.00
G01 X162.700 Y9.500
G00 Z3.50
G00 X0.000 Y15.000
G01 Z0.00 F100.00
G01 X0.000 Y30.000 F400.00
G01 X45.000 Y30.000
G01 X45.000 Y15.000
G01 X0.000 Y15.000
G00 Z3.50
G00 X14.900 Y26.278
G01 Z1.30 F100.00
G01 X15.900 Y26.278 F400.00
G01 X16.400 Y26.427
G01 X16.766 Y26.833
G01 X16.900 Y27.389
G01 X16.766 Y27.944
G01 X16.400 Y28.351
G01 X15.900 Y28.500
G01 X14.900 Y28.500
G01 X14.900 Y24.500
G00 Z3.50
G00 X18.100 Y26.278
G01 Z1.30 F100.00
G01 X19.100 Y26.278 F400.00
G01 X19.600 Y26.427
G01 X19.966 Y26.833
G01 X20.100 Y27.389
G01 X19.966 Y27.944
G01 X19.600 Y28.351
G01 X19.100 Y28.500
G01 X18.100 Y28.500
G01 X18.100 Y24.500
G00 Z3.50
G00 X19.291 Y26.298
G01 Z1.30 F100.00
G01 X20.100 Y24.500 F400.00
G00 Z3.50
G00 X23.367 Y25.611
G01 Z1.30 F100.00
G01 X21.633 Y25.611 F400.00
G00 Z3.50
G00 X23.700 Y24.500
G01 Z1.30 F100.00
G01 X22.500 Y28.500 F400.00
G01 X21.300 Y24.500
G00 Z3.50
G00 X26.500 Y28.500
G01 Z1.30 F100.00
G01 X25.700 Y28.500 F400.00
G01 X25.394 Y28.432
G01 X25.134 Y28.240
G01 X24.961 Y27.951
G03 X24.961 Y25.049 I7.126 J-1.451
G01 X25.134 Y24.760
G01 X25.394 Y24.568
G01 X25.700 Y24.500
G01 X26.500 Y24.500
G00 Z3.50
G00 X29.767 Y25.611
G01 Z1.30 F100.00
G01 X28.033 Y25.611 F400.00
G00 Z3.50
G00 X30.100 Y24.500
G01 Z1.30 F100.00
G01 X28.900 Y28.500 F400.00
G01 X27.700 Y24.500
G00 Z3.50
G00 X45.000 Y15.000
G01 Z0.00 F100.00
G01 X45.000 Y30.000 F400.00
G01 X90.000 Y30.000
G01 X90.000 Y15.000
G01 X45.000 Y15.000
G00 Z3.50
G00 X60.367 Y25.611
G01 Z1.30 F100.00
G01 X58.633 Y25.611 F400.00
G00 Z3.50
G00 X60.700 Y24.500
G01 Z1.30 F100.00
G01 X59.500 Y28.500 F400.00
G01 X58.300 Y24.500
G00 Z3.50
G00 X65.100 Y28.500
G01 Z1.30 F100.00
G01 X64.300 Y24.500 F400.00
G01 X63.500 Y27.167
G01 X62.700 Y24.500
G01 X61.900 Y28.500
G00 Z3.50
G00 X68.367 Y25.611
G01 Z1.30 F100.00
G01 X66.633 Y25.611 F400.00
G00 Z3.50
G00 X68.700 Y24.500
G01 Z1.30 F100.00
G01 X67.500 Y28.500 F400.00
G01 X66.300 Y24.500
G00 Z3.50
G00 X69.900 Y26.278
G01 Z1.30 F100.00
G01 X70.900 Y26.278 F400.00
G01 X71.400 Y26.427
G01 X71.766 Y26.833
G01 X71.900 Y27.389
G01 X71.766 Y27.944
G01 X71.400 Y28.351
G01 X70.900 Y28.500
G01 X69.900 Y28.500
G01 X69.900 Y24.500
G00 Z3.50
G00 X71.091 Y26.298
G01 Z1.30 F100.00
G01 X71.900 Y24.500 F400.00
G00 Z3.50
G00 X73.100 Y28.500
G01 Z1.30 F100.00
G01 X73.100 Y24.500 F400.00
G00 Z3.50
G00 X76.367 Y25.611
G01 Z1.30 F100.00
G01 X74.633 Y25.611 F400.00
G00 Z3.50
G00 X76.700 Y24.500
G01 Z1.30 F100.00
G01 X75.500 Y28.500 F400.00
G01 X74.300 Y24.500
G00 Z3.50
G00 X90.000 Y15.000
G01 Z0.00 F100.00
G01 X90.000 Y30.000 F400.00
G01 X135.000 Y30.000
G01 X135.000 Y15.000
G01 X90.000 Y15.000
G00 Z3.50
G00 X105.367 Y25.611
G01 Z1.30 F100.00
G01 X103.633 Y25.611 F400.00
G00 Z3.50
G00 X105.700 Y24.500
G01 Z1.30 F100.00
G01 X104.500 Y28.500 F400.00
G01 X103.300 Y24.500
G00 Z3.50
G00 X110.100 Y28.500
G01 Z1.30 F100.00
G01 X109.300 Y24.500 F400.00
G01 X108.500 Y27.167
G01 X107.700 Y24.500
G01 X106.900 Y28.500
G00 Z3.50
G00 X113.367 Y25.611
G01 Z1.30 F100.00
G01 X111.633 Y25.611 F400.00
G00 Z3.50
G00 X113.700 Y24.500
G01 Z1.30 F100.00
G01 X112.500 Y28.500 F400.00
G01 X111.300 Y24.500
G00 Z3.50
G00 X114.900 Y26.278
G01 Z1.30 F100.00
G01 X115.900 Y26.278 F400.00
G01 X116.400 Y26.427
G01 X116.766 Y26.833
G01 X116.900 Y27.389
G01 X116.766 Y27.944
G01 X116.400 Y28.351
G01 X115.900 Y28.500
G01 X114.900 Y28.500
G01 X114.900 Y24.500
G00 Z3.50
G00 X116.091 Y26.298
G01 Z1.30 F100.00
G01 X116.900 Y24.500 F400.00
G00 Z3.50
G00 X118.100 Y28.500
G01 Z1.30 F100.00
G01 X118.100 Y24.500 F400.00
G00 Z3.50
G00 X121.367 Y25.611
G01 Z1.30 F100.00
G01 X119.633 Y25.611 F400.00
G00 Z3.50
G00 X121.700 Y24.500
G01 Z1.30 F100.00
G01 X120.500 Y28.500 F400.00
G01 X119.300 Y24.500
G00 Z3.50
G00 X135.000 Y15.000
G01 Z0.00 F100.00
G01 X135.000 Y30.000 F400.00
G01 X180.000 Y30.000
G01 X180.000 Y15.000
G01 X135.000 Y15.000
G00 Z3.50
G00 X150.367 Y25.611
G01 Z1.30 F100.00
G01 X148.633 Y25.611 F400.00
G00 Z3.50
G00 X150.700 Y24.500
G01 Z1.30 F100.00
G01 X149.500 Y28.500 F400.00
G01 X148.300 Y24.500
G00 Z3.50
G00 X155.100 Y28.500
G01 Z1.30 F100.00
G01 X154.300 Y24.500 F400.00
G01 X153.500 Y27.167
G01 X152.700 Y24.500
G01 X151.900 Y28.500
G00 Z3.50
G00 X158.367 Y25.611
G01 Z1.30 F100.00
G01 X156.633 Y25.611 F400.00
G00 Z3.50
G00 X158.700 Y24.500
G01 Z1.30 F100.00
G01 X157.500 Y28.500 F400.00
G01 X156.300 Y24.500
G00 Z3.50
G00 X159.900 Y26.278
G01 Z1.30 F100.00
G01 X160.900 Y26.278 F400.00
G01 X161.400 Y26.427
G01 X161.766 Y26.833
G01 X161.900 Y27.389
G01 X161.766 Y27.944
G01 X161.400 Y28.351
G01 X160.900 Y28.500
G01 X159.900 Y28.500
G01 X159.900 Y24.500
G00 Z3.50
G00 X161.091 Y26.298
G01 Z1.30 F100.00
G01 X161.900 Y24.500 F400.00
G00 Z3.50
G00 X163.100 Y28.500
G01 Z1.30 F100.00
G01 X163.100 Y24.500 F400.00
G00 Z3.50
G00 X166.367 Y25.611
G01 Z1.30 F100.00
G01 X164.633 Y25.611 F400.00
G00 Z3.50
G00 X166.700 Y24.500
G01 Z1.30 F100.00
G01 X165.500 Y28.500 F400.00
G01 X164.300 Y24.500
G00 Z3.50
G00 X0.000 Y30.000
G01 Z0.00 F100.00
G01 X0.000 Y45.000 F400.00
G01 X45.000 Y45.000
G01 X45.000 Y30.000
G01 X0.000 Y30.000
G00 Z3.50
G00 X16.700 Y43.278
G01 Z1.30 F100.00
G03 X15.700 Y43.500 I-1.003 J-2.154 F400.00
G01 X15.293 Y43.376
G01 X14.999 Y43.039
G01 X14.901 Y42.583
G01 X15.025 Y42.135
G01 X15.337 Y41.819
G01 X16.464 Y41.181
G01 X16.776 Y40.865
G01 X16.900 Y40.417
G01 X16.801 Y39.961
G01 X16.507 Y39.624
G01 X16.100 Y39.500
G02 X14.900 Y39.944 I0.011 J1.872
G00 Z3.50
G00 X20.100 Y43.500
G01 Z1.30 F100.00
G01 X18.100 Y43.500 F400.00
G00 Z3.50
G00 X19.100 Y39.500
G01 Z1.30 F100.00
G01 X19.100 Y43.500 F400.00
G00 Z3.50
G00 X23.366 Y40.611
G01 Z1.30 F100.00
G01 X21.633 Y40.611 F400.00
G00 Z3.50
G00 X23.700 Y39.500
G01 Z1.30 F100.00
G01 X22.500 Y43.500 F400.00
G01 X21.300 Y39.500
G00 Z3.50
G00 X24.900 Y41.278
G01 Z1.30 F100.00
G01 X25.900 Y41.278 F400.00
G01 X26.400 Y41.427
G01 X26.766 Y41.833
G01 X26.900 Y42.389
G01 X26.766 Y42.944
G01 X26.400 Y43.351
G01 X25.900 Y43.500
G01 X24.900 Y43.500
G01 X24.900 Y39.500
G00 Z3.50
G00 X26.091 Y41.298
G01 Z1.30 F100.00
G01 X26.900 Y39.500 F400.00
G00 Z3.50
G00 X30.100 Y43.500
G01 Z1.30 F100.00
G01 X28.100 Y43.500 F400.00
G00 Z3.50
G00 X29.100 Y39.500
G01 Z1.30 F100.00
G01 X29.100 Y43.500 F400.00
G00 Z3.50
G00 X45.000 Y30.000
G01 Z0.00 F100.00
G01 X45.000 Y45.000 F400.00
G01 X90.000 Y45.000
G01 X90.000 Y30.000
G01 X45.000 Y30.000
G00 Z3.50
G00 X61.700 Y43.278
G01 Z1.30 F100.00
G03 X60.700 Y43.500 I-1.003 J-2.154 F400.00
G01 X60.293 Y43.376
G01 X59.999 Y43.039
G01 X59.901 Y42.583
G01 X60.025 Y42.135
G01 X60.337 Y41.819
G01 X61.464 Y41.181
G01 X61.776 Y40.865
G01 X61.900 Y40.417
G01 X61.801 Y39.961
G01 X61.507 Y39.624
G01 X61.100 Y39.500
G02 X59.900 Y39.944 I0.011 J1.872
G00 Z3.50
G00 X65.100 Y43.500
G01 Z1.30 F100.00
G01 X63.100 Y43.500 F400.00
G00 Z3.50
G00 X64.100 Y39.500
G01 Z1.30 F100.00
G01 X64.100 Y43.500 F400.00
G00 Z3.50
G00 X68.366 Y40.611
G01 Z1.30 F100.00
G01 X66.633 Y40.611 F400.00
G00 Z3.50
G00 X68.700 Y39.500
G01 Z1.30 F100.00
G01 X67.500 Y43.500 F400.00
G01 X66.300 Y39.500
G00 Z3.50
G00 X69.900 Y41.278
G01 Z1.30 F100.00
G01 X70.900 Y41.278 F400.00
G01 X71.400 Y41.427
G01 X71.766 Y41.833
G01 X71.900 Y42.389
G01 X71.766 Y42.944
G01 X71.400 Y43.351
G01 X70.900 Y43.500
G01 X69.900 Y43.500
G01 X69.900 Y39.500
G00 Z3.50
G00 X71.091 Y41.298
G01 Z1.30 F100.00
G01 X71.900 Y39.500 F400.00
G00 Z3.50
G00 X75.100 Y43.500
G01 Z1.30 F100.00
G01 X73.100 Y43.500 F400.00
G00 Z3.50
G00 X74.100 Y39.500
G01 Z1.30 F100.00
G01 X74.100 Y43.500 F400.00
G00 Z3.50
G00 X90.000 Y30.000
G01 Z0.00 F100.00
G01 X90.000 Y45.000 F400.00
G01 X135.000 Y45.000
G01 X135.000 Y30.000
G01 X90.000 Y30.000
G00 Z3.50
G00 X106.700 Y43.278
G01 Z1.30 F100.00
G03 X105.700 Y43.500 I-1.003 J-2.154 F400.00
G01 X105.293 Y43.376
G01 X104.999 Y43.039
G01 X104.901 Y42.583
G01 X105.025 Y42.135
G01 X105.337 Y41.819
G01 X106.464 Y41.181
G01 X106.776 Y40.865
G01 X106.900 Y40.417
G01 X106.801 Y39.961
G01 X106.507 Y39.624
G01 X106.100 Y39.500
G02 X104.900 Y39.944 I0.011 J1.872
G00 Z3.50
G00 X110.100 Y43.500
G01 Z1.30 F100.00
G01 X108.100 Y43.500 F400.00
G00 Z3.50
G00 X109.100 Y39.500
G01 Z1.30 F100.00
G01 X109.100 Y43.500 F400.00
G00 Z3.50
G00 X113.366 Y40.611
G01 Z1.30 F100.00
G01 X111.633 Y40.611 F400.00
G00 Z3.50
G00 X113.700 Y39.500
G01 Z1.30 F100.00
G01 X112.500 Y43.500 F400.00
G01 X111.300 Y39.500
G00 Z3.50
G00 X114.900 Y41.278
G01 Z1.30 F100.00
G01 X115.900 Y41.278 F400.00
G01 X116.400 Y41.427
G01 X116.766 Y41.833
G01 X116.900 Y42.389
G01 X116.766 Y42.944
G01 X116.400 Y43.351
G01 X115.900 Y43.500
G01 X114.900 Y43.500
G01 X114.900 Y39.500
G00 Z3.50
G00 X116.091 Y41.298
G01 Z1.30 F100.00
G01 X116.900 Y39.500 F400.00
G00 Z3.50
G00 X120.100 Y43.500
G01 Z1.30 F100.00
G01 X118.100 Y43.500 F400.00
G00 Z3.50
G00 X119.100 Y39.500
G01 Z1.30 F100.00
G01 X119.100 Y43.500 F400.00
G00 Z3.50
G00 X135.000 Y30.000
G01 Z0.00 F100.00
G01 X135.000 Y45.000 F400.00
G01 X180.000 Y45.000
G01 X180.000 Y30.000
G01 X135.000 Y30.000
G00 Z3.50
G00 X153.500 Y43.278
G01 Z1.30 F100.00
G03 X152.500 Y43.500 I-1.003 J-2.154 F400.00
G01 X152.093 Y43.376
G01 X151.799 Y43.039
G01 X151.701 Y42.583
G01 X151.825 Y42.135
G01 X152.137 Y41.819
G01 X153.264 Y41.181
G01 X153.576 Y40.865
G01 X153.700 Y40.417
G01 X153.601 Y39.961
G01 X153.307 Y39.624
G01 X152.900 Y39.500
G02 X151.700 Y39.944 I0.011 J1.872
G00 Z3.50
G00 X156.900 Y43.500
G01 Z1.30 F100.00
G01 X154.900 Y43.500 F400.00
G00 Z3.50
G00 X155.900 Y39.500
G01 Z1.30 F100.00
G01 X155.900 Y43.500 F400.00
G00 Z3.50
G00 X160.100 Y40.611
G01 Z1.30 F100.00
G01 X160.100 Y42.389 F400.00
G01 X159.966 Y42.944
G01 X159.600 Y43.351
G01 X159.100 Y43.500
G01 X158.600 Y43.351
G01 X158.234 Y42.944
G03 X158.234 Y40.056 I4.771 J-1.444
G01 X158.600 Y39.649
G01 X159.100 Y39.500
G01 X159.600 Y39.649
G01 X159.966 Y40.056
G01 X160.100 Y40.611
G00 Z3.50
G00 X161.300 Y41.278
G01 Z1.30 F100.00
G01 X162.300 Y41.278 F400.00
G01 X162.800 Y41.427
G01 X163.166 Y41.833
G01 X163.300 Y42.389
G01 X163.166 Y42.944
G01 X162.800 Y43.351
G01 X162.300 Y43.500
G01 X161.300 Y43.500
G01 X161.300 Y39.500
G00 Z3.50
G00 X0.000 Y45.000
G01 Z0.00 F100.00
G01 X0.000 Y60.000 F400.00
G01 X45.000 Y60.000
G01 X45.000 Y45.000
G01 X0.000 Y45.000
G00 Z3.50
G00 X18.500 Y58.278
G01 Z1.30 F100.00
G03 X17.500 Y58.500 I-1.003 J-2.154 F400.00
G01 X17.093 Y58.376
G01 X16.799 Y58.039
G01 X16.701 Y57.583
G01 X16.825 Y57.135
G01 X17.137 Y56.819
G01 X18.264 Y56.181
G01 X18.576 Y55.865
G01 X18.700 Y55.417
G01 X18.601 Y54.961
G01 X18.307 Y54.624
G01 X17.900 Y54.500
G02 X16.700 Y54.944 I0.011 J1.872
G00 Z3.50
G00 X21.900 Y58.500
G01 Z1.30 F100.00
G01 X19.900 Y58.500 F400.00
G00 Z3.50
G00 X20.900 Y54.500
G01 Z1.30 F100.00
G01 X20.900 Y58.500 F400.00
G00 Z3.50
G00 X25.100 Y55.611
G01 Z1.30 F100.00
G01 X25.100 Y57.389 F400.00
G01 X24.966 Y57.944
G01 X24.600 Y58.351
G01 X24.100 Y58.500
G01 X23.600 Y58.351
G01 X23.234 Y57.944
G03 X23.234 Y55.056 I4.771 J-1.444
G01 X23.600 Y54.649
G01 X24.100 Y54.500
G01 X24.600 Y54.649
G01 X24.966 Y55.056
G01 X25.100 Y55.611
G00 Z3.50
G00 X26.300 Y56.278
G01 Z1.30 F100.00
G01 X27.300 Y56.278 F400.00
G01 X27.800 Y56.427
G01 X28.166 Y56.833
G01 X28.300 Y57.389
G01 X28.166 Y57.944
G01 X27.800 Y58.351
G01 X27.300 Y58.500
G01 X26.300 Y58.500
G01 X26.300 Y54.500
G00 Z3.50
G00 X45.000 Y45.000
G01 Z0.00 F100.00
G01 X45.000 Y60.000 F400.00
G01 X90.000 Y60.000
G01 X90.000 Y45.000
G01 X45.000 Y45.000
G00 Z3.50
G00 X63.500 Y58.278
G01 Z1.30 F100.00
G03 X62.500 Y58.500 I-1.003 J-2.154 F400.00
G01 X62.093 Y58.376
G01 X61.799 Y58.039
G01 X61.701 Y57.583
G01 X61.825 Y57.135
G01 X62.137 Y56.819
G01 X63.264 Y56.181
G01 X63.576 Y55.865
G01 X63.700 Y55.417
G01 X63.601 Y54.961
G01 X63.307 Y54.624
G01 X62.900 Y54.500
G02 X61.700 Y54.944 I0.011 J1.872
G00 Z3.50
G00 X66.900 Y58.500
G01 Z1.30 F100.00
G01 X64.900 Y58.500 F400.00
G00 Z3.50
G00 X65.900 Y54.500
G01 Z1.30 F100.00
G01 X65.900 Y58.500 F400.00
G00 Z3.50
G00 X70.100 Y55.611
G01 Z1.30 F100.00
G01 X70.100 Y57.389 F400.00
G01 X69.966 Y57.944
G01 X69.600 Y58.351
G01 X69.100 Y58.500
G01 X68.600 Y58.351
G01 X68.234 Y57.944
G03 X68.234 Y55.056 I4.771 J-1.444
G01 X68.600 Y54.649
G01 X69.100 Y54.500
G01 X69.600 Y54.649
G01 X69.966 Y55.056
G01 X70.100 Y55.611
G00 Z3.50
G00 X71.300 Y56.278
G01 Z1.30 F100.00
G01 X72.300 Y56.278 F400.00
G01 X72.800 Y56.427
G01 X73.166 Y56.833
G01 X73.300 Y57.389
G01 X73.166 Y57.944
G01 X72.800 Y58.351
G01 X72.300 Y58.500
G01 X71.300 Y58.500
G01 X71.300 Y54.500
G00 Z3.50
G00 X90.000 Y45.000
G01 Z0.00 F100.00
G01 X90.000 Y60.000 F400.00
G01 X135.000 Y60.000
G01 X135.000 Y45.000
G01 X90.000 Y45.000
G00 Z3.50
G00 X102.700 Y54.500
G01 Z1.30 F100.00
G01 X100.700 Y54.500 F400.00
G01 X102.700 Y58.500
G01 X100.700 Y58.500
G00 Z3.50
G00 X105.967 Y55.611
G01 Z1.30 F100.00
G01 X104.234 Y55.611 F400.00
G00 Z3.50
G00 X106.300 Y54.500
G01 Z1.30 F100.00
G01 X105.100 Y58.500 F400.00
G01 X103.900 Y54.500
G00 Z3.50
G00 X109.300 Y58.278
G01 Z1.30 F100.00
G03 X108.300 Y58.500 I-1.003 J-2.154 F400.00
G01 X107.893 Y58.376
G01 X107.599 Y58.039
G01 X107.501 Y57.583
G01 X107.625 Y57.135
G01 X107.937 Y56.819
G01 X109.064 Y56.181
G01 X109.376 Y55.865
G01 X109.500 Y55.417
G01 X109.401 Y54.961
G01 X109.107 Y54.624
G01 X108.700 Y54.500
G02 X107.500 Y54.944 I0.011 J1.872
G00 Z3.50
G00 X110.700 Y58.500
G01 Z1.30 F100.00
G01 X110.700 Y54.500 F400.00
G00 Z3.50
G00 X113.500 Y54.500
G01 Z1.30 F100.00
G01 X111.900 Y54.500 F400.00
G01 X111.900 Y58.500
G00 Z3.50
G00 X116.766 Y55.611
G01 Z1.30 F100.00
G01 X115.033 Y55.611 F400.00
G00 Z3.50
G00 X117.100 Y54.500
G01 Z1.30 F100.00
G01 X115.900 Y58.500 F400.00
G01 X114.700 Y54.500
G00 Z3.50
G00 X120.300 Y58.500
G01 Z1.30 F100.00
G01 X120.300 Y54.500 F400.00
G01 X118.300 Y58.500
G01 X118.300 Y54.500
G00 Z3.50
G00 X121.500 Y58.500
G01 Z1.30 F100.00
G01 X121.500 Y54.500 F400.00
G00 Z3.50
G00 X124.300 Y58.500
G01 Z1.30 F100.00
G01 X122.700 Y58.500 F400.00
G01 X122.700 Y54.500
G01 X124.300 Y54.500
G00 Z3.50
G00 X123.900 Y56.722
G01 Z1.30 F100.00
G01 X122.700 Y56.722 F400.00
G00 Z3.50
G00 X135.000 Y45.000
G01 Z0.00 F100.00
G01 X135.000 Y60.000 F400.00
G01 X180.000 Y60.000
G01 X180.000 Y45.000
G01 X135.000 Y45.000
G00 Z3.50
G00 X143.092 Y56.278
G01 Z1.30 F100.00
G01 X143.814 Y56.278 F400.00
G01 X144.175 Y56.427
G01 X144.439 Y56.833
G01 X144.536 Y57.389
G01 X144.439 Y57.944
G01 X144.175 Y58.351
G01 X143.814 Y58.500
G01 X143.092 Y58.500
G01 X143.092 Y54.500
G00 Z3.50
G00 X146.847 Y55.611
G01 Z1.30 F100.00
G01 X146.847 Y57.389 F400.00
G01 X146.750 Y57.944
G01 X146.486 Y58.351
G01 X146.125 Y58.500
G01 X145.764 Y58.351
G01 X145.500 Y57.944
G03 X145.500 Y55.056 I6.650 J-1.444
G01 X145.764 Y54.649
G01 X146.125 Y54.500
G01 X146.486 Y54.649
G01 X146.750 Y55.056
G01 X146.847 Y55.611
G00 Z3.50
G00 X149.447 Y54.500
G01 Z1.30 F100.00
G01 X149.447 Y58.500 F400.00
G01 X148.581 Y56.278
G01 X147.714 Y58.500
G01 X147.714 Y54.500
G00 Z3.50
G00 X150.314 Y56.278
G01 Z1.30 F100.00
G01 X151.036 Y56.278 F400.00
G01 X151.397 Y56.427
G01 X151.662 Y56.833
G01 X151.758 Y57.389
G01 X151.662 Y57.944
G01 X151.397 Y58.351
G01 X151.036 Y58.500
G01 X150.314 Y58.500
G01 X150.314 Y54.500
G00 Z3.50
G00 X154.118 Y55.611
G01 Z1.30 F100.00
G01 X152.866 Y55.611 F400.00
G00 Z3.50
G00 X154.358 Y54.500
G01 Z1.30 F100.00
G01 X153.492 Y58.500 F400.00
G01 X152.625 Y54.500
G00 Z3.50
G00 X159.486 Y55.611
G01 Z1.30 F100.00
G01 X159.486 Y57.389 F400.00
G01 X159.389 Y57.944
G01 X159.125 Y58.351
G01 X158.764 Y58.500
G01 X158.403 Y58.351
G01 X158.138 Y57.944
G03 X158.138 Y55.056 I6.650 J-1.444
G01 X158.403 Y54.649
G01 X158.764 Y54.500
G01 X159.125 Y54.649
G01 X159.389 Y55.056
G01 X159.486 Y55.611
G00 Z3.50
G00 X160.353 Y54.500
G01 Z1.30 F100.00
G01 X160.353 Y58.500 F400.00
G01 X161.219 Y58.500
G01 X161.441 Y58.432
G01 X161.628 Y58.240
G01 X161.753 Y57.951
G02 X161.753 Y55.049 I-9.887 J-1.451
G01 X161.628 Y54.760
G01 X161.441 Y54.568
G01 X161.219 Y54.500
G01 X160.353 Y54.500
G00 Z3.50
G00 X164.975 Y58.500
G01 Z1.30 F100.00
G01 X164.397 Y54.500 F400.00
G01 X163.819 Y57.167
G01 X163.242 Y54.500
G01 X162.664 Y58.500
G00 Z3.50
G00 X167.286 Y55.611
G01 Z1.30 F100.00
G01 X167.286 Y57.389 F400.00
G01 X167.189 Y57.944
G01 X166.925 Y58.351
G01 X166.564 Y58.500
G01 X166.203 Y58.351
G01 X165.938 Y57.944
G03 X165.938 Y55.056 I6.650 J-1.444
G01 X166.203 Y54.649
G01 X166.564 Y54.500
G01 X166.925 Y54.649
G01 X167.189 Y55.056
G01 X167.286 Y55.611
G00 Z3.50
G00 X168.153 Y54.500
G01 Z1.30 F100.00
G01 X168.153 Y58.500 F400.00
G01 X169.019 Y58.500
G01 X169.241 Y58.432
G01 X169.428 Y58.240
G01 X169.553 Y57.951
G02 X169.553 Y55.049 I-9.887 J-1.451
G01 X169.428 Y54.760
G01 X169.241 Y54.568
G01 X169.019 Y54.500
G01 X168.153 Y54.500
G00 Z3.50
G00 X171.908 Y58.500
G01 Z1.30 F100.00
G01 X171.908 Y54.500 F400.00
G01 X170.464 Y58.500
G01 X170.464 Y54.500
; Optimized: 596 moves (27 arcs, 569 lines) from 800 raw points (0 short moves / near-duplicate points removed)
G00 Z3.50
M05
G00 X0.000 Y0.000
M30
